{
  "type": "FeatureCollection",
  "features": [
    {
      "type": "Feature",
      "properties": {
        "norad_id": 34070,
        "name": "COSMOS 2251 DEB",
        "group": "cosmos-2251-debris",
        "lat": 25.19963751231783,
        "lon": -92.06866189598182,
        "alt_km": 629.9645477055674,
        "timestamp": "2025-12-23T05:02:12.423573+00:00",
        "meta_object_name": "COSMOS 2251 DEB",
        "meta_object_id": "1993-036KH",
        "meta_epoch": "2025-12-21T13:24:18.093600",
        "meta_mean_motion": 14.7729737,
        "meta_eccentricity": 0.0018155,
        "meta_inclination": 74.0012,
        "meta_ra_of_asc_node": 98.9349,
        "meta_arg_of_pericenter": 215.9122,
        "meta_mean_anomaly": 159.1877,
        "meta_ephemeris_type": 0,
        "meta_classification_type": "U",
        "meta_norad_cat_id": 34070,
        "meta_element_set_no": 999,
        "meta_rev_at_epoch": 88741,
        "meta_bstar": 0.0022778642,
        "meta_mean_motion_dot": 0.00016219,
        "meta_mean_motion_ddot": 0,
        "tle_line1": "1 34070U 93036KH  25355.55854275  .00016219  00000+0  22779-2 0  9993",
        "tle_line2": "2 34070  74.0012  98.9349 0018155 215.9122 159.1877 14.77297370887417"
      },
      "geometry": {
        "type": "Point",
        "coordinates": [
          -92.06866189598182,
          25.19963751231783
        ]
      }
    },
    {
      "type": "Feature",
      "properties": {
        "norad_id": 34114,
        "name": "COSMOS 2251 DEB",
        "group": "cosmos-2251-debris",
        "lat": -56.52847989222346,
        "lon": -1.6231086821726985,
        "alt_km": 702.3661150358275,
        "timestamp": "2025-12-23T05:02:12.423583+00:00",
        "meta_object_name": "COSMOS 2251 DEB",
        "meta_object_id": "1993-036KK",
        "meta_epoch": "2025-12-22T11:42:10.189152",
        "meta_mean_motion": 14.5649918,
        "meta_eccentricity": 0.0047962,
        "meta_inclination": 74.0581,
        "meta_ra_of_asc_node": 25.3598,
        "meta_arg_of_pericenter": 16.6596,
        "meta_mean_anomaly": 98.2642,
        "meta_ephemeris_type": 0,
        "meta_classification_type": "U",
        "meta_norad_cat_id": 34114,
        "meta_element_set_no": 999,
        "meta_rev_at_epoch": 87943,
        "meta_bstar": 0.0016510078,
        "meta_mean_motion_dot": 7.437e-05,
        "meta_mean_motion_ddot": 0,
        "tle_line1": "1 34114U 93036KK  25356.48761793  .00007437  00000+0  16510-2 0  9995",
        "tle_line2": "2 34114  74.0581  25.3598 0047962  16.6596  98.2642 14.56499180879432"
      },
      "geometry": {
        "type": "Point",
        "coordinates": [
          -1.6231086821726985,
          -56.52847989222346
        ]
      }
    },
    {
      "type": "Feature",
      "properties": {
        "norad_id": 34115,
        "name": "COSMOS 2251 DEB",
        "group": "cosmos-2251-debris",
        "lat": -22.90751783840896,
        "lon": 48.2590585113269,
        "alt_km": 654.931067458856,
        "timestamp": "2025-12-23T05:02:12.423593+00:00",
        "meta_object_name": "COSMOS 2251 DEB",
        "meta_object_id": "1993-036KL",
        "meta_epoch": "2025-12-22T08:38:51.353376",
        "meta_mean_motion": 14.79607286,
        "meta_eccentricity": 0.00289645,
        "meta_inclination": 74.0053,
        "meta_ra_of_asc_node": 222.9719,
        "meta_arg_of_pericenter": 43.6291,
        "meta_mean_anomaly": 316.7168,
        "meta_ephemeris_type": 0,
        "meta_classification_type": "U",
        "meta_norad_cat_id": 34115,
        "meta_element_set_no": 999,
        "meta_rev_at_epoch": 89554,
        "meta_bstar": 0.0009465402,
        "meta_mean_motion_dot": 7.118e-05,
        "meta_mean_motion_ddot": 0,
        "tle_line1": "1 34115U 93036KL  25356.36031659  .00007118  00000+0  94654-3 0  9996",
        "tle_line2": "2 34115  74.0053 222.9719 0028964  43.6291 316.7168 14.79607286895544"
      },
      "geometry": {
        "type": "Point",
        "coordinates": [
          48.2590585113269,
          -22.90751783840896
        ]
      }
    },
    {
      "type": "Feature",
      "properties": {
        "norad_id": 34116,
        "name": "COSMOS 2251 DEB",
        "group": "cosmos-2251-debris",
        "lat": -62.38580119830132,
        "lon": 16.19427835373947,
        "alt_km": 714.2953460965164,
        "timestamp": "2025-12-23T05:02:12.423603+00:00",
        "meta_object_name": "COSMOS 2251 DEB",
        "meta_object_id": "1993-036KM",
        "meta_epoch": "2025-12-22T21:50:50.707104",
        "meta_mean_motion": 14.5303332,
        "meta_eccentricity": 0.00117993,
        "meta_inclination": 74.0395,
        "meta_ra_of_asc_node": 163.5912,
        "meta_arg_of_pericenter": 239.6052,
        "meta_mean_anomaly": 241.1776,
        "meta_ephemeris_type": 0,
        "meta_classification_type": "U",
        "meta_norad_cat_id": 34116,
        "meta_element_set_no": 999,
        "meta_rev_at_epoch": 88634,
        "meta_bstar": 0.00081214161,
        "meta_mean_motion_dot": 3.33e-05,
        "meta_mean_motion_ddot": 0,
        "tle_line1": "1 34116U 93036KM  25356.91030911  .00003330  00000+0  81214-3 0  9998",
        "tle_line2": "2 34116  74.0395 163.5912 0011799 239.6052 241.1776 14.53033320886347"
      },
      "geometry": {
        "type": "Point",
        "coordinates": [
          16.19427835373947,
          -62.38580119830132
        ]
      }
    },
    {
      "type": "Feature",
      "properties": {
        "norad_id": 34117,
        "name": "COSMOS 2251 DEB",
        "group": "cosmos-2251-debris",
        "lat": -51.79874140133861,
        "lon": -56.8414218193872,
        "alt_km": 766.5388642640519,
        "timestamp": "2025-12-23T05:02:12.423613+00:00",
        "meta_object_name": "COSMOS 2251 DEB",
        "meta_object_id": "1993-036KN",
        "meta_epoch": "2025-12-22T15:57:05.607936",
        "meta_mean_motion": 14.40049269,
        "meta_eccentricity": 0.00549711,
        "meta_inclination": 74.0394,
        "meta_ra_of_asc_node": 325.4908,
        "meta_arg_of_pericenter": 39.0624,
        "meta_mean_anomaly": 321.448,
        "meta_ephemeris_type": 0,
        "meta_classification_type": "U",
        "meta_norad_cat_id": 34117,
        "meta_element_set_no": 999,
        "meta_rev_at_epoch": 88266,
        "meta_bstar": 0.0005902457,
        "meta_mean_motion_dot": 1.868e-05,
        "meta_mean_motion_ddot": 0,
        "tle_line1": "1 34117U 93036KN  25356.66464824  .00001868  00000+0  59025-3 0  9994",
        "tle_line2": "2 34117  74.0394 325.4908 0054971  39.0624 321.4480 14.40049269882667"
      },
      "geometry": {
        "type": "Point",
        "coordinates": [
          -56.8414218193872,
          -51.79874140133861
        ]
      }
    },
    {
      "type": "Feature",
      "properties": {
        "norad_id": 34118,
        "name": "COSMOS 2251 DEB",
        "group": "cosmos-2251-debris",
        "lat": -67.18813162321364,
        "lon": 91.30077323365981,
        "alt_km": 631.3337448692209,
        "timestamp": "2025-12-23T05:02:12.423623+00:00",
        "meta_object_name": "COSMOS 2251 DEB",
        "meta_object_id": "1993-036KP",
        "meta_epoch": "2025-12-22T02:52:25.784832",
        "meta_mean_motion": 14.9423226,
        "meta_eccentricity": 0.00600908,
        "meta_inclination": 73.9511,
        "meta_ra_of_asc_node": 230.318,
        "meta_arg_of_pericenter": 58.165,
        "meta_mean_anomaly": 93.962,
        "meta_ephemeris_type": 0,
        "meta_classification_type": "U",
        "meta_norad_cat_id": 34118,
        "meta_element_set_no": 999,
        "meta_rev_at_epoch": 89316,
        "meta_bstar": 0.0014639243,
        "meta_mean_motion_dot": 0.0001627,
        "meta_mean_motion_ddot": 0,
        "tle_line1": "1 34118U 93036KP  25356.11974288  .00016270  00000+0  14639-2 0  9999",
        "tle_line2": "2 34118  73.9511 230.3180 0060090  58.1650  93.9620 14.94232260893161"
      },
      "geometry": {
        "type": "Point",
        "coordinates": [
          91.30077323365981,
          -67.18813162321364
        ]
      }
    },
    {
      "type": "Feature",
      "properties": {
        "norad_id": 34120,
        "name": "COSMOS 2251 DEB",
        "group": "cosmos-2251-debris",
        "lat": -50.91758529702994,
        "lon": 177.38279820953153,
        "alt_km": 873.2547088087276,
        "timestamp": "2025-12-23T05:02:12.423632+00:00",
        "meta_object_name": "COSMOS 2251 DEB",
        "meta_object_id": "1993-036KR",
        "meta_epoch": "2025-12-22T23:00:52.638912",
        "meta_mean_motion": 13.98694938,
        "meta_eccentricity": 0.01823976,
        "meta_inclination": 73.9902,
        "meta_ra_of_asc_node": 198.5195,
        "meta_arg_of_pericenter": 23.9382,
        "meta_mean_anomaly": 101.3179,
        "meta_ephemeris_type": 0,
        "meta_classification_type": "U",
        "meta_norad_cat_id": 34120,
        "meta_element_set_no": 999,
        "meta_rev_at_epoch": 86123,
        "meta_bstar": 0.00028165609,
        "meta_mean_motion_dot": 4.43e-06,
        "meta_mean_motion_ddot": 0,
        "tle_line1": "1 34120U 93036KR  25356.95894258  .00000443  00000+0  28166-3 0  9998",
        "tle_line2": "2 34120  73.9902 198.5195 0182397  23.9382 101.3179 13.98694938861239"
      },
      "geometry": {
        "type": "Point",
        "coordinates": [
          177.38279820953153,
          -50.91758529702994
        ]
      }
    }
  ]
}